{"fetched_at":"2026-03-30T06:02:59Z","count":15439,"tles":[{"name":"STARLINK-31061","line1":"1 58611U 23200Y   26087.61599934  .00000494  00000+0  27457-4 0  9992","line2":"2 58611  43.0048  62.0998 0001527 268.6836  91.3840 15.27592081126509","category":"Starlink"}]}